CCSDS_OMM_VERS = 2.0
CREATION_DATE  = 
ORIGINATOR     = 

OBJECT_NAME    = SENTINEL-6B
OBJECT_ID      = 2025-264A
CENTER_NAME    = EARTH
REF_FRAME      = TEME
TIME_SYSTEM    = UTC
MEAN_ELEMENT_THEORY = SGP/SGP4

EPOCH          = 2025-12-08T23:22:28.347744
MEAN_MOTION    = 12.84032540
ECCENTRICITY   = .00210881
INCLINATION    = 66.0391
RA_OF_ASC_NODE = 170.2706
ARG_OF_PERICENTER = 268.2250
MEAN_ANOMALY   = 91.6352

EPHEMERIS_TYPE = 0
CLASSIFICATION_TYPE = U
NORAD_CAT_ID   = 66514
ELEMENT_SET_NO = 999
REV_AT_EPOCH   = 280
BSTAR          = -.54273268E-2
MEAN_MOTION_DOT = -.1368E-4
MEAN_MOTION_DDOT = 0

CCSDS_OMM_VERS = 2.0
CREATION_DATE  = 
ORIGINATOR     = 

OBJECT_NAME    = STARLINK-35924
OBJECT_ID      = 2025-265A
CENTER_NAME    = EARTH
REF_FRAME      = TEME
TIME_SYSTEM    = UTC
MEAN_ELEMENT_THEORY = SGP/SGP4

EPOCH          = 2025-12-11T14:00:01.999872
MEAN_MOTION    = 15.45915727
ECCENTRICITY   = .00011032
INCLINATION    = 43.0003
RA_OF_ASC_NODE = 60.8070
ARG_OF_PERICENTER = 283.9554
MEAN_ANOMALY   = 221.4766

EPHEMERIS_TYPE = 0
CLASSIFICATION_TYPE = U
NORAD_CAT_ID   = 66516
ELEMENT_SET_NO = 999
REV_AT_EPOCH   = 478
BSTAR          = -.45913268E-1
MEAN_MOTION_DOT = -.2036022E-1
MEAN_MOTION_DDOT = 0

CCSDS_OMM_VERS = 2.0
CREATION_DATE  = 
ORIGINATOR     = 

OBJECT_NAME    = STARLINK-35937
OBJECT_ID      = 2025-265B
CENTER_NAME    = EARTH
REF_FRAME      = TEME
TIME_SYSTEM    = UTC
MEAN_ELEMENT_THEORY = SGP/SGP4

EPOCH          = 2025-12-11T14:00:01.999872
MEAN_MOTION    = 15.50603251
ECCENTRICITY   = .00015886
INCLINATION    = 43.0002
RA_OF_ASC_NODE = 60.7825
ARG_OF_PERICENTER = 283.1272
MEAN_ANOMALY   = 232.8838

EPHEMERIS_TYPE = 0
CLASSIFICATION_TYPE = U
NORAD_CAT_ID   = 66517
ELEMENT_SET_NO = 999
REV_AT_EPOCH   = 480
BSTAR          = -.2143394E-2
MEAN_MOTION_DOT = -.124219E-2
MEAN_MOTION_DDOT = 0

CCSDS_OMM_VERS = 2.0
CREATION_DATE  = 
ORIGINATOR     = 

OBJECT_NAME    = STARLINK-35962
OBJECT_ID      = 2025-265C
CENTER_NAME    = EARTH
REF_FRAME      = TEME
TIME_SYSTEM    = UTC
MEAN_ELEMENT_THEORY = SGP/SGP4

EPOCH          = 2025-12-11T14:00:01.999872
MEAN_MOTION    = 15.50615112
ECCENTRICITY   = .00015168
INCLINATION    = 43.0000
RA_OF_ASC_NODE = 60.7766
ARG_OF_PERICENTER = 275.7225
MEAN_ANOMALY   = 242.1877

EPHEMERIS_TYPE = 0
CLASSIFICATION_TYPE = U
NORAD_CAT_ID   = 66518
ELEMENT_SET_NO = 999
REV_AT_EPOCH   = 480
BSTAR          = -.20279257E-2
MEAN_MOTION_DOT = -.117691E-2
MEAN_MOTION_DDOT = 0

CCSDS_OMM_VERS = 2.0
CREATION_DATE  = 
ORIGINATOR     = 

OBJECT_NAME    = STARLINK-35931
OBJECT_ID      = 2025-265D
CENTER_NAME    = EARTH
REF_FRAME      = TEME
TIME_SYSTEM    = UTC
MEAN_ELEMENT_THEORY = SGP/SGP4

EPOCH          = 2025-12-11T14:00:01.999872
MEAN_MOTION    = 15.50594666
ECCENTRICITY   = .00015292
INCLINATION    = 43.0003
RA_OF_ASC_NODE = 60.7724
ARG_OF_PERICENTER = 274.0292
MEAN_ANOMALY   = 245.8213

EPHEMERIS_TYPE = 0
CLASSIFICATION_TYPE = U
NORAD_CAT_ID   = 66519
ELEMENT_SET_NO = 999
REV_AT_EPOCH   = 480
BSTAR          = -.20195083E-2
MEAN_MOTION_DOT = -.117127E-2
MEAN_MOTION_DDOT = 0

CCSDS_OMM_VERS = 2.0
CREATION_DATE  = 
ORIGINATOR     = 

OBJECT_NAME    = STARLINK-35952
OBJECT_ID      = 2025-265E
CENTER_NAME    = EARTH
REF_FRAME      = TEME
TIME_SYSTEM    = UTC
MEAN_ELEMENT_THEORY = SGP/SGP4

EPOCH          = 2025-12-11T14:00:01.999872
MEAN_MOTION    = 15.50974020
ECCENTRICITY   = .00011894
INCLINATION    = 42.9996
RA_OF_ASC_NODE = 60.7664
ARG_OF_PERICENTER = 286.2101
MEAN_ANOMALY   = 235.4850

EPHEMERIS_TYPE = 0
CLASSIFICATION_TYPE = U
NORAD_CAT_ID   = 66520
ELEMENT_SET_NO = 999
REV_AT_EPOCH   = 480
BSTAR          = -.31211072E-1
MEAN_MOTION_DOT = -.166324E-1
MEAN_MOTION_DDOT = 0

CCSDS_OMM_VERS = 2.0
CREATION_DATE  = 
ORIGINATOR     = 

OBJECT_NAME    = STARLINK-35915
OBJECT_ID      = 2025-265F
CENTER_NAME    = EARTH
REF_FRAME      = TEME
TIME_SYSTEM    = UTC
MEAN_ELEMENT_THEORY = SGP/SGP4

EPOCH          = 2025-12-11T14:00:01.999872
MEAN_MOTION    = 15.50624773
ECCENTRICITY   = .0001532
INCLINATION    = 43.0002
RA_OF_ASC_NODE = 60.7618
ARG_OF_PERICENTER = 274.2258
MEAN_ANOMALY   = 249.4371

EPHEMERIS_TYPE = 0
CLASSIFICATION_TYPE = U
NORAD_CAT_ID   = 66521
ELEMENT_SET_NO = 999
REV_AT_EPOCH   = 480
BSTAR          = -.23818194E-2
MEAN_MOTION_DOT = -.137865E-2
MEAN_MOTION_DDOT = 0

CCSDS_OMM_VERS = 2.0
CREATION_DATE  = 
ORIGINATOR     = 

OBJECT_NAME    = STARLINK-35946
OBJECT_ID      = 2025-265G
CENTER_NAME    = EARTH
REF_FRAME      = TEME
TIME_SYSTEM    = UTC
MEAN_ELEMENT_THEORY = SGP/SGP4

EPOCH          = 2025-12-11T14:00:01.999872
MEAN_MOTION    = 15.50480943
ECCENTRICITY   = .00019199
INCLINATION    = 43.0000
RA_OF_ASC_NODE = 60.7581
ARG_OF_PERICENTER = 270.4576
MEAN_ANOMALY   = 255.0300

EPHEMERIS_TYPE = 0
CLASSIFICATION_TYPE = U
NORAD_CAT_ID   = 66522
ELEMENT_SET_NO = 999
REV_AT_EPOCH   = 480
BSTAR          = .2021243E-2
MEAN_MOTION_DOT = .119647E-2
MEAN_MOTION_DDOT = 0

CCSDS_OMM_VERS = 2.0
CREATION_DATE  = 
ORIGINATOR     = 

OBJECT_NAME    = STARLINK-35969
OBJECT_ID      = 2025-265H
CENTER_NAME    = EARTH
REF_FRAME      = TEME
TIME_SYSTEM    = UTC
MEAN_ELEMENT_THEORY = SGP/SGP4

EPOCH          = 2025-12-11T14:00:01.999872
MEAN_MOTION    = 15.50620110
ECCENTRICITY   = .00044403
INCLINATION    = 43.0004
RA_OF_ASC_NODE = 60.7525
ARG_OF_PERICENTER = 289.0242
MEAN_ANOMALY   = 238.4533

EPHEMERIS_TYPE = 0
CLASSIFICATION_TYPE = U
NORAD_CAT_ID   = 66523
ELEMENT_SET_NO = 999
REV_AT_EPOCH   = 480
BSTAR          = -.17524028E-2
MEAN_MOTION_DOT = -.102016E-2
MEAN_MOTION_DDOT = 0

CCSDS_OMM_VERS = 2.0
CREATION_DATE  = 
ORIGINATOR     = 

OBJECT_NAME    = STARLINK-35687
OBJECT_ID      = 2025-265J
CENTER_NAME    = EARTH
REF_FRAME      = TEME
TIME_SYSTEM    = UTC
MEAN_ELEMENT_THEORY = SGP/SGP4

EPOCH          = 2025-12-11T14:00:01.999872
MEAN_MOTION    = 15.47124251
ECCENTRICITY   = .00011488
INCLINATION    = 43.0003
RA_OF_ASC_NODE = 60.7587
ARG_OF_PERICENTER = 278.3340
MEAN_ANOMALY   = 246.3386

EPHEMERIS_TYPE = 0
CLASSIFICATION_TYPE = U
NORAD_CAT_ID   = 66524
ELEMENT_SET_NO = 999
REV_AT_EPOCH   = 480
BSTAR          = -.4401692E-1
MEAN_MOTION_DOT = -.2036046E-1
MEAN_MOTION_DDOT = 0

CCSDS_OMM_VERS = 2.0
CREATION_DATE  = 
ORIGINATOR     = 

OBJECT_NAME    = STARLINK-35975
OBJECT_ID      = 2025-265K
CENTER_NAME    = EARTH
REF_FRAME      = TEME
TIME_SYSTEM    = UTC
MEAN_ELEMENT_THEORY = SGP/SGP4

EPOCH          = 2025-12-11T14:00:01.999872
MEAN_MOTION    = 15.50487433
ECCENTRICITY   = .00018886
INCLINATION    = 43.0002
RA_OF_ASC_NODE = 60.7424
ARG_OF_PERICENTER = 294.2704
MEAN_ANOMALY   = 237.0875

EPHEMERIS_TYPE = 0
CLASSIFICATION_TYPE = U
NORAD_CAT_ID   = 66525
ELEMENT_SET_NO = 999
REV_AT_EPOCH   = 480
BSTAR          = -.1408517E-2
MEAN_MOTION_DOT = -.81851E-3
MEAN_MOTION_DDOT = 0

CCSDS_OMM_VERS = 2.0
CREATION_DATE  = 
ORIGINATOR     = 

OBJECT_NAME    = STARLINK-35932
OBJECT_ID      = 2025-265L
CENTER_NAME    = EARTH
REF_FRAME      = TEME
TIME_SYSTEM    = UTC
MEAN_ELEMENT_THEORY = SGP/SGP4

EPOCH          = 2025-12-11T14:00:01.999872
MEAN_MOTION    = 15.50601013
ECCENTRICITY   = .00014738
INCLINATION    = 43.0002
RA_OF_ASC_NODE = 60.7384
ARG_OF_PERICENTER = 268.6836
MEAN_ANOMALY   = 264.5898

EPHEMERIS_TYPE = 0
CLASSIFICATION_TYPE = U
NORAD_CAT_ID   = 66526
ELEMENT_SET_NO = 999
REV_AT_EPOCH   = 469
BSTAR          = -.22165217E-2
MEAN_MOTION_DOT = -.128366E-2
MEAN_MOTION_DDOT = 0

