SENTINEL-6B             
1 66514U 25264A   25342.97393921 -.00001368  00000+0 -54273-2 0  9992
2 66514  66.0391 170.2706 0021088 268.2250  91.6352 12.84032540  2801
STARLINK-35924          
1 66516U 25265A   25345.58335648 -.02036022  00000+0 -45913-1 0  9994
2 66516  43.0003  60.8070 0001103 283.9554 221.4766 15.45915727  4781
STARLINK-35937          
1 66517U 25265B   25345.58335648 -.00124219  00000+0 -21434-2 0  9992
2 66517  43.0002  60.7825 0001588 283.1272 232.8838 15.50603251  4805
STARLINK-35962          
1 66518U 25265C   25345.58335648 -.00117691  00000+0 -20279-2 0  9995
2 66518  43.0000  60.7766 0001516 275.7225 242.1877 15.50615112  4800
STARLINK-35931          
1 66519U 25265D   25345.58335648 -.00117127  00000+0 -20195-2 0  9997
2 66519  43.0003  60.7724 0001529 274.0292 245.8213 15.50594666  4802
STARLINK-35952          
1 66520U 25265E   25345.58335648 -.01663240  00000+0 -31211-1 0  9992
2 66520  42.9996  60.7664 0001189 286.2101 235.4850 15.50974020  4800
STARLINK-35915          
1 66521U 25265F   25345.58335648 -.00137865  00000+0 -23818-2 0  9996
2 66521  43.0002  60.7618 0001532 274.2258 249.4371 15.50624773  4802
STARLINK-35946          
1 66522U 25265G   25345.58335648  .00119647  00000+0  20212-2 0  9998
2 66522  43.0000  60.7581 0001919 270.4576 255.0300 15.50480943  4804
STARLINK-35969          
1 66523U 25265H   25345.58335648 -.00102016  00000+0 -17524-2 0  9995
2 66523  43.0004  60.7525 0004440 289.0242 238.4533 15.50620110  4800
STARLINK-35687          
1 66524U 25265J   25345.58335648 -.02036046  00000+0 -44017-1 0  9993
2 66524  43.0003  60.7587 0001148 278.3340 246.3386 15.47124251  4805
STARLINK-35975          
1 66525U 25265K   25345.58335648 -.00081851  00000+0 -14085-2 0  9999
2 66525  43.0002  60.7424 0001888 294.2704 237.0875 15.50487433  4805
STARLINK-35932          
1 66526U 25265L   25345.58335648 -.00128366  00000+0 -22165-2 0  9991
2 66526  43.0002  60.7384 0001473 268.6836 264.5898 15.50601013  4691
